1 45364U 20019E   23138.10553662  .00028266  00000-0  14503-2 0  9998
2 45364  53.0541  59.7938 0004607  84.8662 275.2856 15.16334246175489
1 45364U 20019E   23138.76464538  .00026733  00000-0  13714-2 0  9993
2 45364  53.0545  56.7884 0004583  87.6109 272.5409 15.16370275175587
1 45364U 20019E   23139.16010283  .00028197  00000-0  14444-2 0  9999
2 45364  53.0542  54.9860 0004581  87.8167 272.3350 15.16393866175643
1 45364U 20019E   23139.75327729  .00029578  00000-0  15125-2 0  9991
2 45364  53.0538  52.2812 0004533  89.8073 270.3439 15.16430512175737
1 45364U 20019E   23140.14871725  .00046292  00000-0  23502-2 0  9996
2 45364  53.0539  50.4788 0004491  90.5722 269.5786 15.16469723175790
1 45364U 20019E   23140.14871725  .00046292  00000-0  23502-2 0  9996
2 45364  53.0539  50.4788 0004491  90.5722 269.5786 15.16469723175790
1 45364U 20019E   23141.13726929  .00047255  00000-0  23915-2 0  9999
2 45364  53.0539  45.9707 0004466  92.9343 267.2161 15.16571759175949
1 45364U 20019E   23141.13726929  .00047255  00000-0  23915-2 0  9999
2 45364  53.0539  45.9707 0004466  92.9343 267.2161 15.16571759175949
1 45364U 20019E   23141.99396615  .00043396  00000-0  21941-2 0  9997
2 45364  53.0542  42.0642 0004419  95.0192 265.1306 15.16644736176072
1 45364U 20019E   23141.99396615  .00043396  00000-0  21941-2 0  9997
2 45364  53.0542  42.0642 0004419  95.0192 265.1306 15.16644736176072
1 45364U 20019E   23142.71883141  .00042390  00000-0  21401-2 0  9997
2 45364  53.0548  38.7586 0004451  97.0854 263.0646 15.16706882176187
1 45364U 20019E   23143.11420051  .00041542  00000-0  20960-2 0  9996
2 45364  53.0548  36.9553 0004413  97.9558 262.1937 15.16737740176246
1 45364U 20019E   23143.83903413  .00023666  00000-0  12030-2 0  9999
2 45364  53.0547  33.6471 0004473 100.9243 259.2254 15.16759978176358
1 45364U 20019E   23144.10261007  .00024318  00000-0  12356-2 0  9992
2 45364  53.0557  32.4528 0004171  97.4978 262.6489 15.16761178176396
1 45364U 20019E   23144.10261007  .00024318  00000-0  12356-2 0  9992
2 45364  53.0557  32.4528 0004171  97.4978 262.6489 15.16761178176396
1 45364U 20019E   23145.88168922  .00032925  00000-0  16610-2 0  9990
2 45364  53.0560  24.3317 0004250 105.0684 255.0780 15.16853383176664
1 45364U 20019E   23146.07935469  .00036454  00000-0  18355-2 0  9999
2 45364  53.0558  23.4289 0004258 105.6806 254.4657 15.16872018176694
1 45364U 20019E   23146.07935469  .00036454  00000-0  18355-2 0  9999
2 45364  53.0558  23.4289 0004258 105.6806 254.4657 15.16872018176694
1 45364U 20019E   23146.87000115  .00036851  00000-0  18525-2 0  9998
2 45364  53.0565  19.8236 0004006 107.4272 252.7160 15.16923947176813
1 45364U 20019E   23146.93588767  .00031414  00000-0  15827-2 0  9991
2 45364  53.0563  19.5217 0004164 106.7114 253.4337 15.16923107176822
1 45364U 20019E   23147.92416110  .00029540  00000-0  14872-2 0  9999
2 45364  53.0566  15.0127 0004113 110.1665 249.9771 15.16979747176979
1 45364U 20019E   23147.92416110  .00029540  00000-0  14872-2 0  9999
2 45364  53.0566  15.0127 0004113 110.1665 249.9771 15.16979747176979
1 45364U 20019E   23148.91239511  .00032184  00000-0  16155-2 0  9991
2 45364  53.0565  10.5037 0003980 114.2326 245.9084 15.17041282177124
1 45364U 20019E   23149.90059081  .00027945  00000-0  14034-2 0  9996
2 45364  53.0560   5.9941 0003870 117.9615 242.1771 15.17096177177271
1 45364U 20019E   23150.03234760  .00028391  00000-0  14252-2 0  9999
2 45364  53.0559   5.3929 0003846 118.2596 241.8786 15.17103720177291
1 45364U 20019E   23150.03234760  .00028391  00000-0  14252-2 0  9999
2 45364  53.0559   5.3929 0003846 118.2596 241.8786 15.17103720177291
1 45364U 20019E   23150.88875057  .00028145  00000-0  14111-2 0  9993
2 45364  53.0555   1.4845 0003802 122.0902 238.0461 15.17151305177422
1 45364U 20019E   23151.74512409  .00031193  00000-0  15591-2 0  9998
2 45364  53.0550 357.5758 0003737 125.6034 234.5309 15.17206705177558
1 45364U 20019E   23151.87687125  .00030227  00000-0  15112-2 0  9996
2 45364  53.0548 356.9745 0003707 125.5464 234.5875 15.17214036177573
1 45364U 20019E   23152.27210789  .00033452  00000-0  16687-2 0  9990
2 45364  53.0546 355.1700 0003707 127.4466 232.6866 15.17242370177634
1 45364U 20019E   23152.93082035  .00033113  00000-0  16500-2 0  9992
2 45364  53.0542 352.1626 0003626 129.0940 231.0377 15.17285526177730
1 45364U 20019E   23152.93082035  .00033113  00000-0  16500-2 0  9992
2 45364  53.0542 352.1626 0003626 129.0940 231.0377 15.17285526177730
1 45364U 20019E   23153.78711975  .00029909  00000-0  14903-2 0  9991
2 45364  53.0539 348.2527 0003521 130.7415 229.3885 15.17336830177865
1 45364U 20019E   23154.51165901  .00025545  00000-0  12745-2 0  9999
2 45364  53.0534 344.9447 0003440 133.2697 226.8584 15.17375254177977
1 45364U 20019E   23154.84098895  .00029959  00000-0  14903-2 0  9993
2 45364  53.0532 343.4413 0003364 133.6565 226.4708 15.17395355178020
1 45364U 20019E   23155.49963647  .00028079  00000-0  13967-2 0  9992
2 45364  53.0529 340.4334 0003316 135.8922 224.2336 15.17431211178129
1 45364U 20019E   23155.76309071  .00030928  00000-0  15355-2 0  9996
2 45364  53.0528 339.2308 0003236 135.8204 224.3048 15.17448238178161
1 45364U 20019E   23155.89481662  .00031271  00000-0  15519-2 0  9991
2 45364  53.0529 338.6293 0003196 135.8509 224.2741 15.17456859178180
1 45364U 20019E   23156.48757432  .00029417  00000-0  14596-2 0  9991
2 45364  53.0528 335.9218 0003126 137.5436 222.5800 15.17494467178271
1 45364U 20019E   23156.88273742  .00032695  00000-0  16185-2 0  9990
2 45364  53.0529 334.1171 0003059 138.3406 221.7821 15.17522833178332
1 45364U 20019E   23157.01445688  .00032961  00000-0  16310-2 0  9992
2 45364  53.0528 333.5155 0003029 138.6085 221.5139 15.17532471178350
1 45364U 20019E   23157.47546851  .00032283  00000-0  15965-2 0  9998
2 45364  53.0530 331.4099 0002943 139.4379 220.6834 15.17564369178427
1 45364U 20019E   23157.73889927  .00034467  00000-0  17020-2 0  9991
2 45364  53.0534 330.2073 0002889 139.4008 220.7202 15.17584108178465
1 45364U 20019E   23158.19989565  .00032242  00000-0  15922-2 0  9999
2 45364  53.0538 328.1018 0002820 140.1644 219.9557 15.17614985178532
1 45364U 20019E   23158.46331851  .00030167  00000-0  14905-2 0  9992
2 45364  53.0538 326.8987 0002779 140.3122 219.8075 15.17630366178577
1 45364U 20019E   23158.85844578  .00034354  00000-0  16928-2 0  9999
2 45364  53.0535 325.0937 0002681 140.9420 219.1768 15.17660241178633
1 45364U 20019E   23159.71451656  .00061526  00000-0  29990-2 0  9990
2 45364  53.0521 321.1824 0002160 144.5970 215.5167 15.17767935178767
1 45364U 20019E   23160.43884283  .00041850  00000-0  20465-2 0  9993
2 45364  53.0534 317.8736 0002501 143.9326 216.1837 15.17833759178873
1 45364U 20019E   23160.57053572  .00042280  00000-0  20667-2 0  9999
2 45364  53.0534 317.2729 0002127 143.4497 216.6642 15.17843576178896
1 45364U 20019E   23160.70222765  .00044117  00000-0  21546-2 0  9994
2 45364  53.0534 316.6713 0002093 144.0139 216.0996 15.17854762178912
1 45364U 20019E   23161.42651826  .00039614  00000-0  19345-2 0  9998
2 45364  53.0541 313.3593 0002400 146.9118 213.2026 15.17906881179026
1 45364U 20019E   23161.42651826  .00039614  00000-0  19345-2 0  9998
2 45364  53.0541 313.3593 0002400 146.9118 213.2026 15.17906881179026
1 45364U 20019E   23161.55820463  .00037784  00000-0  18459-2 0  9998
2 45364  53.0540 312.7579 0002316 146.8686 213.2453 15.17915299179046
1 45364U 20019E   23162.54582566  .00038346  00000-0  18690-2 0  9999
2 45364  53.0544 308.2453 0001996 147.8628 212.2488 15.17989631179195
1 45364U 20019E   23162.67750447  .00040473  00000-0  19706-2 0  9991
2 45364  53.0545 307.6432 0002030 148.9010 211.2104 15.18001247179219
1 45364U 20019E   23162.80918262  .00041248  00000-0  20072-2 0  9996
2 45364  53.0546 307.0416 0001994 149.0850 211.0262 15.18012013179236
1 45364U 20019E   23163.66506639  .00036000  00000-0  17517-2 0  9992
2 45364  53.0551 303.1296 0001815 150.9969 209.1126 15.18078284179362
1 45364U 20019E   23164.38924629  .00036219  00000-0  17593-2 0  9991
2 45364  53.0554 299.8191 0001688 152.3986 207.7098 15.18135979179472
1 45364U 20019E   23164.38924629  .00036219  00000-0  17593-2 0  9991
2 45364  53.0554 299.8191 0001688 152.3986 207.7098 15.18135979179472
1 45364U 20019E   23164.58674393  .00044416  00000-0  21501-2 0  9995
2 45364  53.0556 298.9164 0001658 152.0096 208.0988 15.18160387179507
1 45364U 20019E   23165.37670914  .00045042  00000-0  21750-2 0  9990
2 45364  53.0559 295.3054 0001516 153.3189 206.7884 15.18240438179628
1 45364U 20019E   23165.37670914  .00045042  00000-0  21750-2 0  9990
2 45364  53.0559 295.3054 0001516 153.3189 206.7884 15.18240438179628
1 45364U 20019E   23165.77167494  .00048096  00000-0  23175-2 0  9993
2 45364  53.0558 293.4991 0001428 153.0890 207.0179 15.18285017179683
1 45364U 20019E   23165.77167494  .00048096  00000-0  23175-2 0  9993
2 45364  53.0558 293.4991 0001428 153.0890 207.0179 15.18285017179683
1 45364U 20019E   23166.36410204  .00049492  00000-0  23793-2 0  9996
2 45364  53.0556 290.7899 0001522 156.9964 203.1098 15.18351686179770
1 45364U 20019E   23166.56157347  .00047581  00000-0  22876-2 0  9992
2 45364  53.0569 289.8867 0001393 163.3239 196.7802 15.18367121179806
1 45364U 20019E   23166.62739769  .00044788  00000-0  21549-2 0  9995
2 45364  53.0565 289.5865 0001224 163.6626 196.4408 15.18369205179818
1 45364U 20019E   23166.62739769  .00044788  00000-0  21549-2 0  9995
2 45364  53.0565 289.5865 0001224 163.6626 196.4408 15.18369205179818
1 45364U 20019E   23167.48307999  .00056835  00000-0  27193-2 0  9993
2 45364  53.0562 285.6731 0001088 170.4792 189.6223 15.18453459179940
1 45364U 20019E   23167.61471839  .00058525  00000-0  27978-2 0  9992
2 45364  53.0563 285.0707 0001142 170.3012 189.8005 15.18469253179964
1 45364U 20019E   23167.74635555  .00054816  00000-0  26218-2 0  9998
2 45364  53.0565 284.4691 0001119 170.0794 190.0223 15.18482080179980
